ONEWEB-0176             
1 48210U 21031A   24344.12810620 -.00000004  00000+0 -45527-4 0  9991
2 48210  87.9015  40.0756 0001766  98.6902 261.4427 13.14503499176686
ONEWEB-0184             
1 48211U 21031B   24343.87278418 -.00000419  00000+0 -11647-2 0  9990
2 48211  87.9012  40.1039 0000856  90.1161 270.0067 13.14502622175336
ONEWEB-0179             
1 48212U 21031C   24344.14714164  .00000292  00000+0  75229-3 0  9999
2 48212  87.9015  40.0587 0001796 103.0568 257.0762 13.14503551175414
ONEWEB-0180             
1 48213U 21031D   24343.87594468 -.00000150  00000+0 -43821-3 0  9990
2 48213  87.9014  40.1057 0001552 104.6849 255.4453 13.14500714175266
ONEWEB-0218             
1 48214U 21031E   24343.66981374 -.00000187  00000+0 -53828-3 0  9992
2 48214  87.9014  40.1483 0000776 113.2407 246.8804 13.14502562175394
ONEWEB-0209             
1 48215U 21031F   24344.11542240 -.00000331  00000+0 -92649-3 0  9994
2 48215  87.9016  40.0978 0001810 105.3476 254.7854 13.14502465175455
ONEWEB-0198             
1 48216U 21031G   24343.87120472 -.00000014  00000+0 -71692-4 0  9990
2 48216  87.9016  40.1497 0001438 108.3229 251.8057 13.14502618175530
ONEWEB-0189             
1 48217U 21031H   24344.18836118 -.00000121  00000+0 -36071-3 0  9997
2 48217  87.9015  40.0612 0001468 113.0312 247.0972 13.14503138175314
